{
  "type": "FeatureCollection",
  "features": [
    {
      "type": "Feature",
      "properties": {
        "norad_id": 31620,
        "name": "FENGYUN 1C DEB",
        "group": "fengyun-1c-debris",
        "lat": 67.49925429570679,
        "lon": 64.02554947256151,
        "alt_km": 756.3135641444887,
        "timestamp": "2025-12-27T15:27:11.474006+00:00",
        "meta_object_name": "FENGYUN 1C DEB",
        "meta_object_id": "1999-025CAA",
        "meta_epoch": "2025-12-24T11:57:16.474176",
        "meta_mean_motion": 14.3737324,
        "meta_eccentricity": 0.0019475,
        "meta_inclination": 98.8868,
        "meta_ra_of_asc_node": 82.9689,
        "meta_arg_of_pericenter": 5.6991,
        "meta_mean_anomaly": 354.4413,
        "meta_ephemeris_type": 0,
        "meta_classification_type": "U",
        "meta_norad_cat_id": 31620,
        "meta_element_set_no": 999,
        "meta_rev_at_epoch": 66013,
        "meta_bstar": 0.0023608058,
        "meta_mean_motion_dot": 7.026e-05,
        "meta_mean_motion_ddot": 0,
        "tle_line1": "1 31620U 99025CAA 25358.49810734  .00007026  00000+0  23608-2 0  9991",
        "tle_line2": "2 31620  98.8868  82.9689 0019475   5.6991 354.4413 14.37373240660133"
      },
      "geometry": {
        "type": "Point",
        "coordinates": [
          64.02554947256151,
          67.49925429570679
        ]
      }
    },
    {
      "type": "Feature",
      "properties": {
        "norad_id": 31622,
        "name": "FENGYUN 1C DEB",
        "group": "fengyun-1c-debris",
        "lat": 49.743839443841736,
        "lon": 86.2227975850714,
        "alt_km": 767.5202798598066,
        "timestamp": "2025-12-27T15:27:11.474016+00:00",
        "meta_object_name": "FENGYUN 1C DEB",
        "meta_object_id": "1999-025CAC",
        "meta_epoch": "2025-12-27T05:29:29.356800",
        "meta_mean_motion": 14.37334995,
        "meta_eccentricity": 0.00154928,
        "meta_inclination": 98.816,
        "meta_ra_of_asc_node": 96.3586,
        "meta_arg_of_pericenter": 296.1594,
        "meta_mean_anomaly": 127.788,
        "meta_ephemeris_type": 0,
        "meta_classification_type": "U",
        "meta_norad_cat_id": 31622,
        "meta_element_set_no": 999,
        "meta_rev_at_epoch": 95980,
        "meta_bstar": 0.0020981783,
        "meta_mean_motion_dot": 6.229e-05,
        "meta_mean_motion_ddot": 0,
        "tle_line1": "1 31622U 99025CAC 25361.22881200  .00006229  00000+0  20982-2 0  9990",
        "tle_line2": "2 31622  98.8160  96.3586 0015492 296.1594 127.7880 14.37334995959804"
      },
      "geometry": {
        "type": "Point",
        "coordinates": [
          86.2227975850714,
          49.743839443841736
        ]
      }
    },
    {
      "type": "Feature",
      "properties": {
        "norad_id": 31623,
        "name": "FENGYUN 1C DEB",
        "group": "fengyun-1c-debris",
        "lat": -65.35327484440565,
        "lon": -132.59969781231013,
        "alt_km": 839.2301108030724,
        "timestamp": "2025-12-27T15:27:11.474026+00:00",
        "meta_object_name": "FENGYUN 1C DEB",
        "meta_object_id": "1999-025CAD",
        "meta_epoch": "2025-12-22T19:23:51.435744",
        "meta_mean_motion": 13.82604829,
        "meta_eccentricity": 0.01941743,
        "meta_inclination": 97.6285,
        "meta_ra_of_asc_node": 206.4945,
        "meta_arg_of_pericenter": 338.158,
        "meta_mean_anomaly": 21.1382,
        "meta_ephemeris_type": 0,
        "meta_classification_type": "U",
        "meta_norad_cat_id": 31623,
        "meta_element_set_no": 999,
        "meta_rev_at_epoch": 58059,
        "meta_bstar": 0.00035445246,
        "meta_mean_motion_dot": 4.12e-06,
        "meta_mean_motion_ddot": 0,
        "tle_line1": "1 31623U 99025CAD 25356.80823421  .00000412  00000+0  35445-3 0  9999",
        "tle_line2": "2 31623  97.6285 206.4945 0194174 338.1580  21.1382 13.82604829580595"
      },
      "geometry": {
        "type": "Point",
        "coordinates": [
          -132.59969781231013,
          -65.35327484440565
        ]
      }
    },
    {
      "type": "Feature",
      "properties": {
        "norad_id": 31625,
        "name": "FENGYUN 1C DEB",
        "group": "fengyun-1c-debris",
        "lat": -75.08943662984288,
        "lon": 124.0748212578236,
        "alt_km": 644.3602037902592,
        "timestamp": "2025-12-27T15:27:11.474037+00:00",
        "meta_object_name": "FENGYUN 1C DEB",
        "meta_object_id": "1999-025CAF",
        "meta_epoch": "2025-12-27T00:08:09.633984",
        "meta_mean_motion": 14.5542098,
        "meta_eccentricity": 0.01484622,
        "meta_inclination": 98.8049,
        "meta_ra_of_asc_node": 87.8043,
        "meta_arg_of_pericenter": 332.2937,
        "meta_mean_anomaly": 209.0707,
        "meta_ephemeris_type": 0,
        "meta_classification_type": "U",
        "meta_norad_cat_id": 31625,
        "meta_element_set_no": 999,
        "meta_rev_at_epoch": 98600,
        "meta_bstar": 0.00018535076,
        "meta_mean_motion_dot": 8.73e-06,
        "meta_mean_motion_ddot": 0,
        "tle_line1": "1 31625U 99025CAF 25361.00566706  .00000873  00000+0  18535-3 0  9991",
        "tle_line2": "2 31625  98.8049  87.8043 0148462 332.2937 209.0707 14.55420980986007"
      },
      "geometry": {
        "type": "Point",
        "coordinates": [
          124.0748212578236,
          -75.08943662984288
        ]
      }
    },
    {
      "type": "Feature",
      "properties": {
        "norad_id": 31628,
        "name": "FENGYUN 1C DEB",
        "group": "fengyun-1c-debris",
        "lat": 48.752236925213715,
        "lon": -153.2940508631457,
        "alt_km": 1018.9767507351544,
        "timestamp": "2025-12-27T15:27:11.474047+00:00",
        "meta_object_name": "FENGYUN 1C DEB",
        "meta_object_id": "1999-025CAJ",
        "meta_epoch": "2025-12-27T01:21:12.393216",
        "meta_mean_motion": 13.86900308,
        "meta_eccentricity": 0.01672829,
        "meta_inclination": 102.2712,
        "meta_ra_of_asc_node": 220.3081,
        "meta_arg_of_pericenter": 185.8294,
        "meta_mean_anomaly": 174.0906,
        "meta_ephemeris_type": 0,
        "meta_classification_type": "U",
        "meta_norad_cat_id": 31628,
        "meta_element_set_no": 999,
        "meta_rev_at_epoch": 93498,
        "meta_bstar": 0.0020699333,
        "meta_mean_motion_dot": 2.633e-05,
        "meta_mean_motion_ddot": 0,
        "tle_line1": "1 31628U 99025CAJ 25361.05639344  .00002633  00000+0  20699-2 0  9997",
        "tle_line2": "2 31628 102.2712 220.3081 0167282 185.8294 174.0906 13.86900308934984"
      },
      "geometry": {
        "type": "Point",
        "coordinates": [
          -153.2940508631457,
          48.752236925213715
        ]
      }
    },
    {
      "type": "Feature",
      "properties": {
        "norad_id": 31629,
        "name": "FENGYUN 1C DEB",
        "group": "fengyun-1c-debris",
        "lat": -7.360191223357309,
        "lon": 54.45338701455239,
        "alt_km": 772.003787884134,
        "timestamp": "2025-12-27T15:27:11.474058+00:00",
        "meta_object_name": "FENGYUN 1C DEB",
        "meta_object_id": "1999-025CAK",
        "meta_epoch": "2025-12-26T20:49:06.453120",
        "meta_mean_motion": 14.1475103,
        "meta_eccentricity": 0.0103787,
        "meta_inclination": 102.1333,
        "meta_ra_of_asc_node": 51.8093,
        "meta_arg_of_pericenter": 350.9496,
        "meta_mean_anomaly": 8.9792,
        "meta_ephemeris_type": 0,
        "meta_classification_type": "U",
        "meta_norad_cat_id": 31629,
        "meta_element_set_no": 999,
        "meta_rev_at_epoch": 94646,
        "meta_bstar": 0.00282,
        "meta_mean_motion_dot": 5.656e-05,
        "meta_mean_motion_ddot": 0,
        "tle_line1": "1 31629U 99025CAK 25360.86743580  .00005656  00000+0  28200-2 0  9998",
        "tle_line2": "2 31629 102.1333  51.8093 0103787 350.9496   8.9792 14.14751030946464"
      },
      "geometry": {
        "type": "Point",
        "coordinates": [
          54.45338701455239,
          -7.360191223357309
        ]
      }
    },
    {
      "type": "Feature",
      "properties": {
        "norad_id": 31630,
        "name": "FENGYUN 1C DEB",
        "group": "fengyun-1c-debris",
        "lat": -13.657833665939204,
        "lon": -12.051717151347852,
        "alt_km": 592.6340762710588,
        "timestamp": "2025-12-27T15:27:11.474067+00:00",
        "meta_object_name": "FENGYUN 1C DEB",
        "meta_object_id": "1999-025CAL",
        "meta_epoch": "2025-12-27T05:01:09.188832",
        "meta_mean_motion": 15.06750041,
        "meta_eccentricity": 0.01632158,
        "meta_inclination": 98.0917,
        "meta_ra_of_asc_node": 169.4726,
        "meta_arg_of_pericenter": 307.7713,
        "meta_mean_anomaly": 50.8822,
        "meta_ephemeris_type": 0,
        "meta_classification_type": "U",
        "meta_norad_cat_id": 31630,
        "meta_element_set_no": 999,
        "meta_rev_at_epoch": 98808,
        "meta_bstar": 0.0010044784,
        "meta_mean_motion_dot": 0.00020239,
        "meta_mean_motion_ddot": 0,
        "tle_line1": "1 31630U 99025CAL 25361.20913413  .00020239  00000+0  10045-2 0  9995",
        "tle_line2": "2 31630  98.0917 169.4726 0163215 307.7713  50.8822 15.06750041988087"
      },
      "geometry": {
        "type": "Point",
        "coordinates": [
          -12.051717151347852,
          -13.657833665939204
        ]
      }
    }
  ]
}